NIMIQ 2                 
1 27632U 02062A   26074.04603709 -.00000064  00000+0  00000+0 0  9997
2 27632   9.2281  57.8683 0006345 299.5783  82.5986  1.00271974 43244
ANIK F2                 
1 28378U 04027A   26074.25958466 -.00000049  00000+0  00000+0 0  9997
2 28378   3.0411  80.6913 0003383 306.3680 128.1447  1.00272126 40326
ANIK F1R                
1 28868U 05036A   26074.18903770 -.00000074  00000+0  00000+0 0  9990
2 28868   4.0707  77.7474 0002937 306.9934 108.8077  1.00272174 45513
ANIK F3                 
1 31102U 07009A   26074.25811132 -.00000001  00000+0  00000+0 0  9995
2 31102   0.9530  85.0370 0002709 275.8385 146.1919  1.00272421 45622
NIMIQ 4                 
1 33373U 08044A   26074.26539135 -.00000221  00000+0  00000+0 0  9992
2 33373   0.0234 117.0056 0002374 240.8580 188.5320  1.00271114 64041
TELSTAR 11N             
1 34111U 09009A   26074.23757492 -.00000251  00000+0  00000+0 0  9993
2 34111   0.0180 161.1032 0002536 183.1177 236.5825  1.00273051 45301
TERRESTAR-1             
1 35496U 09035A   26074.04569043 -.00000054  00000+0  00000+0 0  9992
2 35496   5.1046  48.8291 0003028 312.2349  77.0317  1.00273098 61196
NIMIQ 5                 
1 35873U 09050A   26074.26721137 -.00000258  00000+0  00000+0 0  9992
2 35873   0.0230 245.0887 0002694 116.2167 195.0577  1.00271312 60403
SKYTERRA 1              
1 37218U 10061A   26074.04759711 -.00000116  00000+0  00000+0 0  9999
2 37218   4.9238  50.8967 0001586 329.1588  68.4206  1.00272422 56254
TELSTAR 14R             
1 37602U 11021A   26073.98389683  .00000000  00000+0  00000+0 0  9993
2 37602   0.0257 147.3410 0002229 211.0799 105.3846  1.00268726 54893
NIMIQ 6                 
1 38342U 12026A   26074.21040178 -.00000174  00000+0  00000+0 0  9994
2 38342   0.0293 266.6873 0002500  87.1045 163.6616  1.00271428 49474
ANIK G1                 
1 39127U 13014A   26074.26036466 -.00000075  00000+0  00000+0 0  9994
2 39127   0.0267 249.7091 0002690  85.2084 184.3661  1.00272155 47312
TELSTAR 12V             
1 41036U 15068A   26074.20732444 -.00000120  00000+0  00000+0 0  9991
2 41036   0.0154 133.0816 0002557 227.6272 231.7404  1.00271683 37688
VIASAT-2                
1 42740U 17029A   26072.91287538 -.00000266  00000+0  00000+0 0  9999
2 42740   0.0237 251.7614 0000523 154.6739  23.8210  1.00271485 32247
LEO 1 (LEO VANTAGE 1)   
1 43113U 18004C   26074.22997318  .00005574  00000+0  38725-3 0  9993
2 43113  99.2473 340.2690 0352472   7.9411 352.7170 14.67247755423706
TELSTAR 19V             
1 43562U 18059A   26073.07646742 -.00000280  00000+0  00000+0 0  9996
2 43562   0.0197 170.7800 0001001 268.0214  57.4139  1.00271403 28194
TELSTAR 18V             
1 43611U 18069A   26073.45324433 -.00000294  00000+0  00000+0 0  9999
2 43611   0.0181 239.1072 0002117 117.3545 116.7669  1.00272233 27687
